OBJECT_NAME,OBJECT_ID,EPOCH,MEAN_MOTION,ECCENTRICITY,INCLINATION,RA_OF_ASC_NODE,ARG_OF_PERICENTER,MEAN_ANOMALY,EPHEMERIS_TYPE,CLASSIFICATION_TYPE,NORAD_CAT_ID,ELEMENT_SET_NO,REV_AT_EPOCH,BSTAR,MEAN_MOTION_DOT,MEAN_MOTION_DDOT
STARLINK-30145,2023-113B,2026-07-04T03:12:13.156704,15.26664793,.00040638,43.0044,78.4696,285.8102,74.2301,0,U,57496,999,16137,-.21101904E-1,-.526739E-2,0
STARLINK-30226,2023-113C,2026-07-04T00:10:03.211104,15.27575673,.0001769,43.0013,79.2523,268.9609,91.1040,0,U,57497,999,16136,.18566496E-3,.485E-4,0
STARLINK-30203,2023-113D,2026-07-04T01:10:53.986944,15.27571026,.00012396,43.0036,78.7006,270.4654,89.6056,0,U,57498,999,16149,.75249211E-4,.1809E-4,0
STARLINK-30169,2023-113E,2026-07-04T00:29:20.875200,15.27571680,.00013462,43.0028,64.9131,267.8539,92.2158,0,U,57499,999,16147,.12172899E-3,.3088E-4,0
STARLINK-30164,2023-113F,2026-07-04T01:36:49.056480,15.27569458,.00010722,43.0015,78.8300,257.3734,102.6998,0,U,57500,999,16147,.10145497E-3,.253E-4,0
STARLINK-30072,2023-113G,2026-07-04T02:08:14.776224,15.27582605,.00005689,43.0016,78.9778,246.4452,113.6340,0,U,57501,999,16136,.27950724E-4,.507E-5,0
STARLINK-30230,2023-113J,2026-07-04T01:33:03.548160,15.27604728,.00015852,42.9997,78.7890,284.7771,75.2905,0,U,57503,999,16136,.29083802E-3,.7756E-4,0
STARLINK-30213,2023-113K,2026-07-04T02:19:20.046720,15.27592659,.00012023,43.0048,79.0361,269.9646,90.1068,0,U,57504,999,16147,.85098884E-4,.2081E-4,0
STARLINK-30227,2023-113L,2026-07-04T01:03:27.415584,15.27038824,.00122575,42.9952,69.9243,218.0677,141.9309,0,U,57505,999,16157,.27371241E-2,.74729E-3,0
STARLINK-30212,2023-113M,2026-07-04T00:50:45.391776,15.27581129,.00015602,43.0033,79.4339,264.5749,95.4925,0,U,57506,999,16130,.2251901E-4,.357E-5,0
STARLINK-30219,2023-113N,2026-07-03T22:59:33.208800,15.31617384,.00034026,43.0015,77.9954,222.2689,137.7902,0,U,57507,999,16147,.47324446E-3,.14509E-3,0
STARLINK-30074,2023-113P,2026-07-04T01:53:27.186432,15.27567893,.0001303,43.0035,78.9097,259.2723,100.7982,0,U,57508,999,16126,.20181249E-4,.293E-5,0
STARLINK-30082,2023-113Q,2026-07-04T01:23:51.110016,15.27569533,.00011724,43.0025,78.7653,265.0494,95.0224,0,U,57509,999,16147,.84716712E-4,.2069E-4,0
STARLINK-30153,2023-113R,2026-07-04T02:32:06.871776,15.27565703,.00013285,43.0039,78.2741,271.9774,88.0926,0,U,57510,999,16137,.92806669E-4,.2291E-4,0
STARLINK-30147,2023-113S,2026-07-04T01:12:44.872704,15.27573771,.00011874,43.0038,78.7099,265.9959,94.0757,0,U,57511,999,16147,.75870923E-4,.1826E-4,0
STARLINK-30157,2023-113T,2026-07-03T23:52:21.648000,15.27577760,.00014414,43.0018,53.4471,265.6462,94.4225,0,U,57512,999,16176,.79659639E-4,.193E-4,0
STARLINK-30168,2023-113U,2026-07-04T01:07:10.744896,15.27592285,.00013297,43.0006,78.6508,271.5159,88.5540,0,U,57513,999,16131,.12217384E-3,.3103E-4,0
STARLINK-30231,2023-113V,2026-07-04T03:03:31.950432,15.27595792,.00014338,43.0015,78.4136,276.9559,83.1129,0,U,57514,999,16148,.58869242E-4,.1359E-4,0
STARLINK-30081,2023-113W,2026-07-04T02:35:47.895072,15.27569021,.00012722,43.0031,78.2890,275.3086,84.7620,0,U,57515,999,16148,.69116775E-4,.164E-4,0
STARLINK-30149,2023-113X,2026-07-04T01:22:00.247584,15.27574143,.0001571,43.0023,78.7575,277.7586,82.3087,0,U,57516,999,16137,.27592371E-4,.497E-5,0
STARLINK-30259,2023-115A,2026-07-04T02:18:12.538080,15.27575442,.00016417,43.0041,64.2403,270.7984,89.2680,0,U,57521,999,16137,.34302339E-4,.682E-5,0
STARLINK-30256,2023-115B,2026-07-04T01:15:30.681216,15.27564006,.00013433,43.0050,64.7673,264.6023,95.4676,0,U,57522,999,16014,.67519658E-4,.1595E-4,0
STARLINK-30261,2023-115C,2026-07-03T23:30:15.236064,15.27566353,.00014855,43.0001,65.0714,264.6228,95.4455,0,U,57523,999,16013,.73728333E-4,.1766E-4,0
STARLINK-30260,2023-115D,2026-07-04T00:38:30.338592,15.27579422,.00014073,43.0032,64.5978,266.0845,93.9846,0,U,57524,999,16014,.29018323E-4,.536E-5,0
STARLINK-30253,2023-115E,2026-07-04T00:55:08.109984,15.27594898,.00019098,43.0032,64.6679,280.6946,79.3690,0,U,57525,999,16014,.47825441E-4,.1054E-4,0
STARLINK-30257,2023-115F,2026-07-04T00:49:35.575392,15.27592787,.00014644,43.0021,64.6634,274.2104,85.8580,0,U,57526,999,16014,.8800462E-5,-.2E-6,0
STARLINK-30250,2023-115G,2026-07-04T01:00:40.615200,15.27600321,.00008033,43.0036,64.6907,270.0127,90.0632,0,U,57527,999,16104,.88455185E-4,.2174E-4,0
STARLINK-30269,2023-115H,2026-07-03T17:35:49.791552,15.27468248,.00014639,43.0076,66.6965,216.6770,143.3982,0,U,57528,999,16009,.83260207E-3,.22642E-3,0
STARLINK-30266,2023-115J,2026-07-04T00:18:09.062496,15.27566547,.00011674,43.0018,64.4765,258.4127,101.6594,0,U,57529,999,16014,.10218075E-3,.255E-4,0
STARLINK-30270,2023-115K,2026-07-04T00:07:03.248544,15.27593165,.00014114,43.0012,64.4316,271.6504,88.4186,0,U,57530,999,16014,.76255519E-3,.20789E-3,0
STARLINK-30268,2023-115L,2026-07-04T01:21:03.780864,15.27579701,.00013798,43.0053,64.8124,269.4112,90.6582,0,U,57531,999,16014,.48045276E-4,.106E-4,0
STARLINK-30251,2023-115M,2026-07-04T01:46:44.117472,15.27596364,.00013308,43.0017,64.0821,277.4702,82.5998,0,U,57532,999,16015,.62090098E-4,.1448E-4,0
STARLINK-30254,2023-115N,2026-07-04T05:34:00.961248,15.27589618,.00014328,43.0001,164.9911,271.2008,88.8679,0,U,57533,999,16318,.62854E-5,-.89E-6,0
STARLINK-30264,2023-115P,2026-07-04T06:05:01.224096,15.27554764,.00026046,43.0051,270.6066,274.3298,85.7256,0,U,57534,999,16318,.73319333E-4,.1754E-4,0
STARLINK-30166,2023-119A,2026-07-04T05:45:19.540800,15.27576503,.00014223,43.0010,143.1602,271.9110,88.1579,0,U,57602,999,16085,.74654352E-4,.1792E-4,0
STARLINK-30223,2023-119B,2026-07-04T05:21:25.654176,15.11436249,.00049065,42.9973,161.7696,110.3208,249.8165,0,U,57603,999,16068,.14994112E-2,.25667E-3,0
STARLINK-30218,2023-119C,2026-07-04T06:16:46.979040,15.27564513,.00013593,43.0032,143.3265,267.4701,92.5995,0,U,57604,999,16091,-.13623215E-3,-.4007E-4,0
STARLINK-30138,2023-119D,2026-07-04T06:22:19.915392,15.27578051,.00012414,43.0040,143.3526,264.5090,95.5620,0,U,57605,999,16091,.6068089E-4,.1408E-4,0
STARLINK-30255,2023-119E,2026-07-04T05:52:43.442400,15.27582582,.00010294,43.0005,143.1966,262.4343,97.6392,0,U,57606,999,16091,.20255828E-4,.296E-5,0
STARLINK-30252,2023-119F,2026-07-04T03:38:39.967872,15.27568394,.00009171,43.0037,128.9275,270.1142,89.9605,0,U,57607,999,16107,-.90873688E-4,-.2761E-4,0
STARLINK-30258,2023-119G,2026-07-04T03:45:28.340064,15.27579780,.00009626,43.0011,144.2431,251.3049,108.7698,0,U,57608,999,16089,.75872536E-4,.1826E-4,0
STARLINK-30174,2023-119H,2026-07-04T05:36:04.444128,15.27583124,.00010505,43.0006,143.1085,267.0919,92.9812,0,U,57609,999,16091,.20066076E-4,.29E-5,0
STARLINK-30248,2023-119J,2026-07-04T05:26:49.410528,15.27579273,.00010825,43.0014,143.0605,271.2575,88.8152,0,U,57610,999,16091,.7099258E-4,.1692E-4,0
STARLINK-30052,2023-119K,2026-07-04T05:41:37.637088,15.27573985,.00015684,43.0020,143.1376,280.3896,79.6779,0,U,57611,999,16089,.57774907E-4,.1328E-4,0
STARLINK-30245,2023-119L,2026-07-04T05:28:40.533888,15.27587207,.00009304,43.0009,143.0685,285.7225,74.3524,0,U,57612,999,16091,-.33823881E-4,-.1193E-4,0
STARLINK-30041,2023-119M,2026-07-04T05:43:28.338816,15.27571962,.00010437,43.0007,143.1422,278.4106,81.6627,0,U,57613,999,16091,.71590177E-4,.1708E-4,0
STARLINK-30244,2023-119N,2026-07-04T05:54:34.595136,15.27577235,.00012661,43.0004,143.1998,266.6386,93.4321,0,U,57614,999,16091,.8843829E-4,.2172E-4,0
STARLINK-30246,2023-119P,2026-07-04T06:00:07.623936,15.27571945,.00012238,43.0016,143.2147,269.5938,90.4773,0,U,57615,999,16091,.41626299E-4,.883E-5,0
STARLINK-30075,2023-119Q,2026-07-04T05:24:58.453920,15.27574167,.00021666,43.0013,143.0580,262.2262,97.8343,0,U,57616,999,16091,.5188688E-5,-.12E-5,0
STARLINK-30148,2023-119R,2026-07-04T05:34:13.499616,15.27575697,.00013626,43.0015,143.1056,260.1274,99.9424,0,U,57617,999,16091,.51116225E-4,.1145E-4,0
STARLINK-30249,2023-119S,2026-07-04T05:39:46.499904,15.27579474,.00011484,43.0017,143.1346,274.3505,85.7215,0,U,57618,999,16091,.4198279E-4,.893E-5,0
STARLINK-30141,2023-119U,2026-07-04T05:56:25.365120,15.27591593,.0001138,43.0003,143.2183,267.4631,92.6090,0,U,57620,999,16091,-.53732212E-4,-.1741E-4,0
STARLINK-30150,2023-119V,2026-07-04T05:50:52.944576,15.27584530,.00008721,43.0004,143.1916,276.2434,83.8318,0,U,57621,999,16091,-.30012988E-4,-.1088E-4,0
STARLINK-30056,2023-119W,2026-07-04T06:05:40.167168,15.27581531,.00005541,43.0017,143.2378,246.2206,113.8588,0,U,57622,999,16091,.28006061E-4,.509E-5,0
STARLINK-30100,2023-119X,2026-07-04T04:37:04.260288,15.27576222,.00009513,43.0014,143.6607,284.9974,75.0772,0,U,57623,999,16090,.61418388E-4,.1428E-4,0
STARLINK-30309,2023-122A,2026-07-04T06:20:23.550144,15.27572923,.00004891,43.0004,154.3157,262.0262,98.0534,0,U,57632,999,16003,-.25119171E-3,-.7166E-4,0
STARLINK-30306,2023-122B,2026-07-04T06:25:56.273952,15.27575524,.00013429,43.0013,154.3407,266.7655,93.3043,0,U,57633,999,16003,.95502318E-4,.2366E-4,0
STARLINK-30323,2023-122C,2026-07-04T05:49:00.398208,15.27585234,.00008855,43.0007,143.1197,255.9782,104.0971,0,U,57634,999,16016,.29792683E-4,.558E-5,0
STARLINK-30329,2023-122D,2026-07-04T06:35:11.602176,15.27573098,.0000614,43.0008,154.3892,241.7525,118.3265,0,U,57635,999,16003,-.11350167E-4,-.574E-5,0
STARLINK-30330,2023-122E,2026-07-04T06:40:41.910240,15.27604796,.00010585,43.0000,154.4176,276.0725,84.0006,0,U,57636,999,16003,.15971732E-3,.4139E-4,0
STARLINK-30311,2023-122F,2026-07-04T00:44:15.528192,15.27576154,.00012422,43.0048,155.1507,268.9370,91.1339,0,U,57637,999,16000,.7381954E-5,-.59E-6,0
STARLINK-30328,2023-122G,2026-07-04T05:37:53.629536,15.27584260,.00009007,43.0011,143.0059,257.0087,103.0665,0,U,57638,999,16017,.42294716E-4,.902E-5,0
STARLINK-30326,2023-122H,2026-07-04T06:03:42.258816,15.27596849,.00012758,43.0019,154.2169,257.3112,102.7597,0,U,57639,999,16003,.21485573E-3,.5658E-4,0
STARLINK-30324,2023-122J,2026-07-04T06:29:38.010048,15.27581451,.00010549,43.0002,154.3584,269.8115,90.2615,0,U,57640,999,16002,-.4903456E-5,-.397E-5,0
